{"type": "FeatureCollection", "features": [ {"type": "Feature", "properties": {"norad_id": 66911, "name": "1998-067XX", "group": "stations", "lat": 46.46742619662047, "lon": -143.48866570089646, "alt_km": 403.0240249363351, "timestamp": "2025-12-22T15:43:47.719836+00:00", "meta": {"OBJECT_NAME": "1998-067XX", "OBJECT_ID": "1998-067XX", "EPOCH": "2025-12-21T12:59:52.344384", "MEAN_MOTION": 15.53156659, "ECCENTRICITY": 0.0003822, "INCLINATION": 51.6308, "RA_OF_ASC_NODE": 98.5657, "ARG_OF_PERICENTER": 260.7512, "MEAN_ANOMALY": 99.3046, "EPHEMERIS_TYPE": 0, "CLASSIFICATION_TYPE": "U", "NORAD_CAT_ID": 66911, "ELEMENT_SET_NO": 999, "REV_AT_EPOCH": 297, "BSTAR": 0.00097482, "MEAN_MOTION_DOT": 0.00062319, "MEAN_MOTION_DDOT": 0}, "tle": {"line1": "1 66911U 98067XX  25355.54157806  .00062319  00000+0  97482-3 0  9992", "line2": "2 66911  51.6308  98.5657 0003822 260.7512  99.3046 15.53156659  2971"}}, "geometry": {"type": "Point", "coordinates": [-143.48866570089646, 46.46742619662047]}}, {"type": "Feature", "properties": {"norad_id": 66912, "name": "1998-067XY", "group": "stations", "lat": 38.08724423853071, "lon": 131.52684268537794, "alt_km": 407.6210701411992, "timestamp": "2025-12-22T15:43:47.719846+00:00", "meta": {"OBJECT_NAME": "1998-067XY", "OBJECT_ID": "1998-067XY", "EPOCH": "2025-12-21T11:41:25.287072", "MEAN_MOTION": 15.51934859, "ECCENTRICITY": 0.0004003, "INCLINATION": 51.6317, "RA_OF_ASC_NODE": 98.9521, "ARG_OF_PERICENTER": 271.7448, "MEAN_ANOMALY": 88.3083, "EPHEMERIS_TYPE": 0, "CLASSIFICATION_TYPE": "U", "NORAD_CAT_ID": 66912, "ELEMENT_SET_NO": 999, "REV_AT_EPOCH": 296, "BSTAR": 0.00071547257, "MEAN_MOTION_DOT": 0.0004353, "MEAN_MOTION_DDOT": 0}, "tle": {"line1": "1 66912U 98067XY  25355.48709823  .00043530  00000+0  71547-3 0  9996", "line2": "2 66912  51.6317  98.9521 0004003 271.7448  88.3083 15.51934859  2960"}}, "geometry": {"type": "Point", "coordinates": [131.52684268537794, 38.08724423853071]}}]}